{"type": "FeatureCollection", "features": [ {"type": "Feature", "properties": {"norad_id": 37550, "name": "IRIDIUM 33 DEB", "group": "iridium-33-debris", "lat": -76.50168471813163, "lon": -141.454538925332, "alt_km": 680.7190344097862, "timestamp": "2025-12-14T03:55:53.173226+00:00", "meta": {"OBJECT_NAME": "IRIDIUM 33 DEB", "OBJECT_ID": "1997-051XK", "EPOCH": "2025-12-11T20:44:57.108768", "MEAN_MOTION": 14.67192319, "ECCENTRICITY": 0.0005511, "INCLINATION": 86.3777, "RA_OF_ASC_NODE": 24.2628, "ARG_OF_PERICENTER": 113.4096, "MEAN_ANOMALY": 246.7698, "EPHEMERIS_TYPE": 0, "CLASSIFICATION_TYPE": "U", "NORAD_CAT_ID": 37550, "ELEMENT_SET_NO": 999, "REV_AT_EPOCH": 86320, "BSTAR": 0.0020084, "MEAN_MOTION_DOT": 0.00011332, "MEAN_MOTION_DDOT": 0}, "tle": {"line1": "1 37550U 97051XK  25345.86454987  .00011332  00000+0  20084-2 0  9997", "line2": "2 37550  86.3777  24.2628 0005511 113.4096 246.7698 14.67192319863204"}}, "geometry": {"type": "Point", "coordinates": [-141.454538925332, -76.50168471813163]}}, {"type": "Feature", "properties": {"norad_id": 37562, "name": "IRIDIUM 33 DEB", "group": "iridium-33-debris", "lat": 50.145411789301846, "lon": 47.33570436783695, "alt_km": 688.5310806421649, "timestamp": "2025-12-14T03:55:53.173236+00:00", "meta": {"OBJECT_NAME": "IRIDIUM 33 DEB", "OBJECT_ID": "1997-051XX", "EPOCH": "2025-12-12T22:34:29.180064", "MEAN_MOTION": 14.56479735, "ECCENTRICITY": 0.00267072, "INCLINATION": 86.3742, "RA_OF_ASC_NODE": 43.5127, "ARG_OF_PERICENTER": 107.2211, "MEAN_ANOMALY": 13.868, "EPHEMERIS_TYPE": 0, "CLASSIFICATION_TYPE": "U", "NORAD_CAT_ID": 37562, "ELEMENT_SET_NO": 999, "REV_AT_EPOCH": 86331, "BSTAR": 0.0015437368, "MEAN_MOTION_DOT": 6.916e-05, "MEAN_MOTION_DDOT": 0}, "tle": {"line1": "1 37562U 97051XX  25346.94061551  .00006916  00000+0  15437-2 0  9999", "line2": "2 37562  86.3742  43.5127 0026707 107.2211  13.8680 14.56479735863311"}}, "geometry": {"type": "Point", "coordinates": [47.33570436783695, 50.145411789301846]}}, {"type": "Feature", "properties": {"norad_id": 37565, "name": "IRIDIUM 33 DEB", "group": "iridium-33-debris", "lat": 13.786685226320968, "lon": -171.93957601783, "alt_km": 721.1747884883562, "timestamp": "2025-12-14T03:55:53.173246+00:00", "meta": {"OBJECT_NAME": "IRIDIUM 33 DEB", "OBJECT_ID": "1997-051YA", "EPOCH": "2025-12-12T08:09:12.075840", "MEAN_MOTION": 14.51514759, "ECCENTRICITY": 0.00152083, "INCLINATION": 86.3497, "RA_OF_ASC_NODE": 9.7522, "ARG_OF_PERICENTER": 85.3197, "MEAN_ANOMALY": 274.9745, "EPHEMERIS_TYPE": 0, "CLASSIFICATION_TYPE": "U", "NORAD_CAT_ID": 37565, "ELEMENT_SET_NO": 999, "REV_AT_EPOCH": 65831, "BSTAR": 0.00084222029, "MEAN_MOTION_DOT": 3.391e-05, "MEAN_MOTION_DDOT": 0}, "tle": {"line1": "1 37565U 97051YA  25346.33972310  .00003391  00000+0  84222-3 0  9992", "line2": "2 37565  86.3497   9.7522 0015208  85.3197 274.9745 14.51514759658312"}}, "geometry": {"type": "Point", "coordinates": [-171.93957601783, 13.786685226320968]}}, {"type": "Feature", "properties": {"norad_id": 38017, "name": "IRIDIUM 33 DEB", "group": "iridium-33-debris", "lat": -61.6591314829074, "lon": -7.581464827072438, "alt_km": 788.4757775936159, "timestamp": "2025-12-14T03:55:53.173256+00:00", "meta": {"OBJECT_NAME": "IRIDIUM 33 DEB", "OBJECT_ID": "1997-051YD", "EPOCH": "2025-12-09T11:46:33.949344", "MEAN_MOTION": 14.48798991, "ECCENTRICITY": 0.0092342, "INCLINATION": 86.3421, "RA_OF_ASC_NODE": 167.6378, "ARG_OF_PERICENTER": 113.8595, "MEAN_ANOMALY": 247.2321, "EPHEMERIS_TYPE": 0, "CLASSIFICATION_TYPE": "U", "NORAD_CAT_ID": 38017, "ELEMENT_SET_NO": 999, "REV_AT_EPOCH": 61355, "BSTAR": 0.0067532519, "MEAN_MOTION_DOT": 0.00027013, "MEAN_MOTION_DDOT": 0}, "tle": {"line1": "1 38017U 97051YD  25343.49067071  .00027013  00000+0  67533-2 0  9990", "line2": "2 38017  86.3421 167.6378 0092342 113.8595 247.2321 14.48798991613556"}}, "geometry": {"type": "Point", "coordinates": [-7.581464827072438, -61.6591314829074]}}, {"type": "Feature", "properties": {"norad_id": 38022, "name": "IRIDIUM 33 DEB", "group": "iridium-33-debris", "lat": -17.065645362007007, "lon": 14.67180634651887, "alt_km": 743.961237276063, "timestamp": "2025-12-14T03:55:53.173266+00:00", "meta": {"OBJECT_NAME": "IRIDIUM 33 DEB", "OBJECT_ID": "1997-051YJ", "EPOCH": "2025-12-12T08:41:14.041248", "MEAN_MOTION": 14.41246239, "ECCENTRICITY": 0.00465932, "INCLINATION": 86.2691, "RA_OF_ASC_NODE": 16.6083, "ARG_OF_PERICENTER": 51.6762, "MEAN_ANOMALY": 308.8611, "EPHEMERIS_TYPE": 0, "CLASSIFICATION_TYPE": "U", "NORAD_CAT_ID": 38022, "ELEMENT_SET_NO": 999, "REV_AT_EPOCH": 69188, "BSTAR": 0.001535131, "MEAN_MOTION_DOT": 5.042e-05, "MEAN_MOTION_DDOT": 0}, "tle": {"line1": "1 38022U 97051YJ  25346.36196807  .00005042  00000+0  15351-2 0  9994", "line2": "2 38022  86.2691  16.6083 0046593  51.6762 308.8611 14.41246239691882"}}, "geometry": {"type": "Point", "coordinates": [14.67180634651887, -17.065645362007007]}}, {"type": "Feature", "properties": {"norad_id": 38028, "name": "IRIDIUM 33 DEB", "group": "iridium-33-debris", "lat": 27.25963797999281, "lon": 177.75338899321892, "alt_km": 719.9277400956989, "timestamp": "2025-12-14T03:55:53.173276+00:00", "meta": {"OBJECT_NAME": "IRIDIUM 33 DEB", "OBJECT_ID": "1997-051YQ", "EPOCH": "2025-12-09T08:38:54.868992", "MEAN_MOTION": 14.46171938, "ECCENTRICITY": 0.00301795, "INCLINATION": 86.3256, "RA_OF_ASC_NODE": 1.7381, "ARG_OF_PERICENTER": 131.6061, "MEAN_ANOMALY": 228.7734, "EPHEMERIS_TYPE": 0, "CLASSIFICATION_TYPE": "U", "NORAD_CAT_ID": 38028, "ELEMENT_SET_NO": 999, "REV_AT_EPOCH": 65446, "BSTAR": 0.0004464513, "MEAN_MOTION_DOT": 1.624e-05, "MEAN_MOTION_DDOT": 0}, "tle": {"line1": "1 38028U 97051YQ  25343.36035728  .00001624  00000+0  44645-3 0  9992", "line2": "2 38028  86.3256   1.7381 0030179 131.6061 228.7734 14.46171938654463"}}, "geometry": {"type": "Point", "coordinates": [177.75338899321892, 27.25963797999281]}}, {"type": "Feature", "properties": {"norad_id": 38228, "name": "IRIDIUM 33 DEB", "group": "iridium-33-debris", "lat": -10.369389190565556, "lon": 47.18491325684589, "alt_km": 849.6872608089598, "timestamp": "2025-12-14T03:55:53.173286+00:00", "meta": {"OBJECT_NAME": "IRIDIUM 33 DEB", "OBJECT_ID": "1997-051ZC", "EPOCH": "2025-12-12T22:17:01.277664", "MEAN_MOTION": 14.2726748, "ECCENTRICITY": 0.00642641, "INCLINATION": 86.2947, "RA_OF_ASC_NODE": 48.3893, "ARG_OF_PERICENTER": 188.8079, "MEAN_ANOMALY": 297.4121, "EPHEMERIS_TYPE": 0, "CLASSIFICATION_TYPE": "U", "NORAD_CAT_ID": 38228, "ELEMENT_SET_NO": 999, "REV_AT_EPOCH": 84784, "BSTAR": 0.00045109336, "MEAN_MOTION_DOT": 1.146e-05, "MEAN_MOTION_DDOT": 0}, "tle": {"line1": "1 38228U 97051ZC  25346.92848701  .00001146  00000+0  45109-3 0  9997", "line2": "2 38228  86.2947  48.3893 0064264 188.8079 297.4121 14.27267480847847"}}, "geometry": {"type": "Point", "coordinates": [47.18491325684589, -10.369389190565556]}}, {"type": "Feature", "properties": {"norad_id": 38241, "name": "IRIDIUM 33 DEB", "group": "iridium-33-debris", "lat": 52.218690613674866, "lon": -5.27034598557627, "alt_km": 701.1479028732783, "timestamp": "2025-12-14T03:55:53.173296+00:00", "meta": {"OBJECT_NAME": "IRIDIUM 33 DEB", "OBJECT_ID": "1997-051ZR", "EPOCH": "2025-12-13T06:13:58.226016", "MEAN_MOTION": 14.54873749, "ECCENTRICITY": 0.00056326, "INCLINATION": 86.3232, "RA_OF_ASC_NODE": 350.3699, "ARG_OF_PERICENTER": 72.2147, "MEAN_ANOMALY": 287.9674, "EPHEMERIS_TYPE": 0, "CLASSIFICATION_TYPE": "U", "NORAD_CAT_ID": 38241, "ELEMENT_SET_NO": 999, "REV_AT_EPOCH": 60208, "BSTAR": 0.0012492013, "MEAN_MOTION_DOT": 5.385e-05, "MEAN_MOTION_DDOT": 0}, "tle": {"line1": "1 38241U 97051ZR  25347.25970169  .00005385  00000+0  12492-2 0  9990", "line2": "2 38241  86.3232 350.3699 0005632  72.2147 287.9674 14.54873749602089"}}, "geometry": {"type": "Point", "coordinates": [-5.27034598557627, 52.218690613674866]}}, {"type": "Feature", "properties": {"norad_id": 38474, "name": "IRIDIUM 33 DEB", "group": "iridium-33-debris", "lat": 15.18894142649602, "lon": -171.54717820155574, "alt_km": 721.2389816340783, "timestamp": "2025-12-14T03:55:53.173306+00:00", "meta": {"OBJECT_NAME": "IRIDIUM 33 DEB", "OBJECT_ID": "1997-051AAB", "EPOCH": "2025-12-12T08:08:10.657536", "MEAN_MOTION": 14.50688816, "ECCENTRICITY": 0.00284142, "INCLINATION": 86.3472, "RA_OF_ASC_NODE": 10.2406, "ARG_OF_PERICENTER": 89.2215, "MEAN_ANOMALY": 271.2246, "EPHEMERIS_TYPE": 0, "CLASSIFICATION_TYPE": "U", "NORAD_CAT_ID": 38474, "ELEMENT_SET_NO": 999, "REV_AT_EPOCH": 65312, "BSTAR": 0.00088014019, "MEAN_MOTION_DOT": 3.495e-05, "MEAN_MOTION_DDOT": 0}, "tle": {"line1": "1 38474U 97051AAB 25346.33901224  .00003495  00000+0  88014-3 0  9996", "line2": "2 38474  86.3472  10.2406 0028414  89.2215 271.2246 14.50688816653125"}}, "geometry": {"type": "Point", "coordinates": [-171.54717820155574, 15.18894142649602]}}, {"type": "Feature", "properties": {"norad_id": 39777, "name": "IRIDIUM 33 DEB", "group": "iridium-33-debris", "lat": -60.74460965415229, "lon": 1.5945743711872296, "alt_km": 689.9032559317848, "timestamp": "2025-12-14T03:55:53.173316+00:00", "meta": {"OBJECT_NAME": "IRIDIUM 33 DEB", "OBJECT_ID": "1997-051AAJ", "EPOCH": "2025-12-12T06:18:37.183104", "MEAN_MOTION": 14.5641282, "ECCENTRICITY": 0.00598335, "INCLINATION": 85.9631, "RA_OF_ASC_NODE": 175.2743, "ARG_OF_PERICENTER": 188.1374, "MEAN_ANOMALY": 171.887, "EPHEMERIS_TYPE": 0, "CLASSIFICATION_TYPE": "U", "NORAD_CAT_ID": 39777, "ELEMENT_SET_NO": 999, "REV_AT_EPOCH": 60178, "BSTAR": 0.0041697031, "MEAN_MOTION_DOT": 0.00019016, "MEAN_MOTION_DDOT": 0}, "tle": {"line1": "1 39777U 97051AAJ 25346.26293036  .00019016  00000+0  41697-2 0  9991", "line2": "2 39777  85.9631 175.2743 0059833 188.1374 171.8870 14.56412820601783"}}, "geometry": {"type": "Point", "coordinates": [1.5945743711872296, -60.74460965415229]}}]}